SIRION PATHFINDER-2     
1 43759U 18099B   26170.69233594  .00004059  00000+0  22350-3 0  9994
2 43759  97.4247 219.6903 0007157 293.9955  66.0528 15.14565833413001
CORVUS BC4              
1 43767U 18099K   26171.36386979  .00002950  00000+0  17292-3 0  9991
2 43767  97.4063 214.2513 0007970   2.4848 357.6421 15.12515737412883
M2 PATHFINDER           
1 45727U 20037E   26171.43841074  .00001221  00000+0  91194-4 0  9998
2 45727  97.8142   2.7066 0012540 136.7896 223.4315 15.04684164325987
NETSAT-4                
1 46504U 20068U   26170.97656422  .00015061  00000+0  33294-3 0  9998
2 46504  97.8606 179.4415 0003536 325.1547  34.9468 15.43941889316200
NETSAT-3                
1 46505U 20068V   26171.43899838  .00016213  00000+0  37245-3 0  9991
2 46505  97.8657 178.1532 0003730 347.9901  12.1255 15.42775919316182
NETSAT-1                
1 46506U 20068W   26170.93912466  .00010455  00000+0  31335-3 0  9995
2 46506  97.8748 171.9127 0004707  24.0550 336.0910 15.34696284315726
NETSAT-2                
1 46507U 20068X   26171.01274924  .00019839  00000+0  40674-3 0  9997
2 46507  97.8618 179.3850 0003088  17.4041 342.7313 15.46101808316177
GREENCUBE (IO-117)      
1 53109U 22080E   26171.29702633 -.00000003  00000+0  00000+0 0  9991
2 53109  70.1444 297.1634 0008923 288.8810  71.0882  6.42583222 92268
SITRO-AIS 5 (KATYS)     
1 57176U 23091L   26171.40658515  .00010175  00000+0  35736-3 0  9992
2 57176  97.5056 235.3369 0012707  93.5424 266.7269 15.29518602164834
SITRO-AIS 6 (CHIRKIN)   
1 57192U 23091AC  26171.39296963  .00008649  00000+0  33853-3 0  9994
2 57192  97.5062 234.4251 0013089  96.6916 263.5812 15.25985001164772
SITRO-AIS 8 (ANOKHIN)   
1 57193U 23091AD  26171.41797191  .00012039  00000+0  38868-3 0  9996
2 57193  97.5051 236.9502 0011710  90.0365 270.2218 15.32211056164946
SITRO-AIS 7 (FARTUSHNIY)
1 57194U 23091AE  26171.39677419  .00008457  00000+0  33420-3 0  9992
2 57194  97.5059 234.2523 0012947  97.5940 262.6768 15.25672072164769
SITRO-AIS 10 (BURDAEV)  
1 57199U 23091AK  26171.43590034  .00016933  00000+0  44399-3 0  9994
2 57199  97.5075 242.0561 0007284  70.7474 289.4558 15.38716536165262
SITRO-AIS 9 (SHCHUKIN)  
1 57201U 23091AM  26171.46334057  .00016878  00000+0  44967-3 0  9991
2 57201  97.5073 241.8115 0007548  70.6764 289.5297 15.38222800165256
SITRO-AIS 12 (SMIRENNIY)
1 57204U 23091AQ  26171.45333795  .00016504  00000+0  43566-3 0  9991
2 57204  97.5087 242.2705 0007058  65.6570 294.5411 15.38515781165278
SITRO-AIS 11 (SHEFFER)  
1 57208U 23091AU  26171.46585007  .00017161  00000+0  44666-3 0  9993
2 57208  97.5084 242.5320 0006969  65.6009 294.5963 15.38942801165293
GRBBETA                 
1 60237U 24128C   26171.40570095  .00002226  00000+0  16133-3 0  9990
2 60237  61.9881 204.9739 0040241 135.3081 225.1267 15.06654606106752
OOV-CUBE (TUBSAT-30)    
1 60240U 24128F   26171.44894970  .00001277  00000+0  10887-3 0  9994
2 60240  61.9929 214.1994 0044227 134.4761 225.9960 15.02783719106604
ROBUSTA-3A (MEDITERRAN*)
1 60243U 24128J   26171.44217900  .00004267  00000+0  25756-3 0  9992
2 60243  61.9846 196.7324 0041011 128.5967 231.8813 15.11702693106916
LASARSAT                
1 62391U 24247Q   26171.27059198  .00028493  00000+0  56523-3 0  9997
2 62391  44.9733 244.8864 0007836 348.4451  11.6258 15.46534749 83790
CROCUBE                 
1 62394U 24247T   26170.49048578  .00032668  00000+0  60622-3 0  9997
2 62394  44.9701 246.5654 0007740 349.0739  10.9982 15.48397693 83708
FORESAIL-1 PRIME        
1 66778U 25276DS  26170.43439938  .00004058  00000+0  19871-3 0  9990
2 66778  97.4197 243.6644 0003961  98.6161 261.5522 15.18719306 30740
KNACKSAT-2              
1 67683U 98067XZ  26170.59247606  .00040473  00000+0  49084-3 0  9990
2 67683  51.6307 282.3774 0008934 225.7617 134.2643 15.60167582 20658
